{
  "type": "FeatureCollection",
  "features": [
    {
      "type": "Feature",
      "properties": {
        "norad_id": 30641,
        "name": "FENGYUN 1C DEB",
        "group": "fengyun-1c-debris",
        "lat": -29.585616993714456,
        "lon": -76.57058787261005,
        "alt_km": 730.4067777360942,
        "timestamp": "2025-12-10T04:57:29.896082+00:00",
        "meta_object_name": "FENGYUN 1C DEB",
        "meta_object_id": "1999-025ANY",
        "meta_epoch": "2025-12-08T19:14:48.630336",
        "meta_mean_motion": 14.78914798,
        "meta_eccentricity": 0.01360654,
        "meta_inclination": 98.9421,
        "meta_ra_of_asc_node": 276.7402,
        "meta_arg_of_pericenter": 138.9481,
        "meta_mean_anomaly": 277.5159,
        "meta_ephemeris_type": 0,
        "meta_classification_type": "U",
        "meta_norad_cat_id": 30641,
        "meta_element_set_no": 999,
        "meta_rev_at_epoch": 474,
        "meta_bstar": 0.00071006747,
        "meta_mean_motion_dot": 6.053e-05,
        "meta_mean_motion_ddot": 0,
        "tle_line1": "1 30641U 99025ANY 25342.80195174  .00006053  00000+0  71007-3 0  9991",
        "tle_line2": "2 30641  98.9421 276.7402 0136065 138.9481 277.5159 14.78914798  4741"
      },
      "geometry": {
        "type": "Point",
        "coordinates": [
          -76.57058787261005,
          -29.585616993714456
        ]
      }
    },
    {
      "type": "Feature",
      "properties": {
        "norad_id": 30646,
        "name": "FENGYUN 1C DEB",
        "group": "fengyun-1c-debris",
        "lat": -20.43262756862746,
        "lon": 8.096504213973656,
        "alt_km": 848.0114063782794,
        "timestamp": "2025-12-10T04:57:29.896092+00:00",
        "meta_object_name": "FENGYUN 1C DEB",
        "meta_object_id": "1999-025APD",
        "meta_epoch": "2025-12-09T00:05:45.397824",
        "meta_mean_motion": 14.09638411,
        "meta_eccentricity": 0.00484067,
        "meta_inclination": 98.6523,
        "meta_ra_of_asc_node": 3.6888,
        "meta_arg_of_pericenter": 42.6968,
        "meta_mean_anomaly": 317.7949,
        "meta_ephemeris_type": 0,
        "meta_classification_type": "U",
        "meta_norad_cat_id": 30646,
        "meta_element_set_no": 999,
        "meta_rev_at_epoch": 96552,
        "meta_bstar": 0.0010048504,
        "meta_mean_motion_dot": 1.738e-05,
        "meta_mean_motion_ddot": 0,
        "tle_line1": "1 30646U 99025APD 25343.00399766  .00001738  00000+0  10049-2 0  9995",
        "tle_line2": "2 30646  98.6523   3.6888 0048406  42.6968 317.7949 14.09638411965528"
      },
      "geometry": {
        "type": "Point",
        "coordinates": [
          8.096504213973656,
          -20.43262756862746
        ]
      }
    },
    {
      "type": "Feature",
      "properties": {
        "norad_id": 30647,
        "name": "FENGYUN 1C DEB",
        "group": "fengyun-1c-debris",
        "lat": 12.585048512634426,
        "lon": -85.97104664142032,
        "alt_km": 726.2305333573167,
        "timestamp": "2025-12-10T04:57:29.896103+00:00",
        "meta_object_name": "FENGYUN 1C DEB",
        "meta_object_id": "1999-025APE",
        "meta_epoch": "2025-12-09T19:08:21.103872",
        "meta_mean_motion": 14.56380638,
        "meta_eccentricity": 0.0029026,
        "meta_inclination": 98.989,
        "meta_ra_of_asc_node": 275.6135,
        "meta_arg_of_pericenter": 183.5234,
        "meta_mean_anomaly": 205.572,
        "meta_ephemeris_type": 0,
        "meta_classification_type": "U",
        "meta_norad_cat_id": 30647,
        "meta_element_set_no": 999,
        "meta_rev_at_epoch": 97946,
        "meta_bstar": 0.0035531,
        "meta_mean_motion_dot": 0.00015834,
        "meta_mean_motion_ddot": 0,
        "tle_line1": "1 30647U 99025APE 25343.79746648  .00015834  00000+0  35531-2 0  9992",
        "tle_line2": "2 30647  98.9890 275.6135 0029026 183.5234 205.5720 14.56380638979469"
      },
      "geometry": {
        "type": "Point",
        "coordinates": [
          -85.97104664142032,
          12.585048512634426
        ]
      }
    },
    {
      "type": "Feature",
      "properties": {
        "norad_id": 30648,
        "name": "FENGYUN 1C DEB",
        "group": "fengyun-1c-debris",
        "lat": -56.11625995785888,
        "lon": -114.28266993778978,
        "alt_km": 744.0567819993576,
        "timestamp": "2025-12-10T04:57:29.896113+00:00",
        "meta_object_name": "FENGYUN 1C DEB",
        "meta_object_id": "1999-025APF",
        "meta_epoch": "2025-12-09T06:37:06.744000",
        "meta_mean_motion": 14.48030512,
        "meta_eccentricity": 0.0034667,
        "meta_inclination": 98.6414,
        "meta_ra_of_asc_node": 77.8542,
        "meta_arg_of_pericenter": 137.9492,
        "meta_mean_anomaly": 289.179,
        "meta_ephemeris_type": 0,
        "meta_classification_type": "U",
        "meta_norad_cat_id": 30648,
        "meta_element_set_no": 999,
        "meta_rev_at_epoch": 97816,
        "meta_bstar": 0.0030449,
        "meta_mean_motion_dot": 0.00011371,
        "meta_mean_motion_ddot": 0,
        "tle_line1": "1 30648U 99025APF 25343.27577250  .00011371  00000+0  30449-2 0  9992",
        "tle_line2": "2 30648  98.6414  77.8542 0034667 137.9492 289.1790 14.48030512978164"
      },
      "geometry": {
        "type": "Point",
        "coordinates": [
          -114.28266993778978,
          -56.11625995785888
        ]
      }
    },
    {
      "type": "Feature",
      "properties": {
        "norad_id": 30649,
        "name": "FENGYUN 1C DEB",
        "group": "fengyun-1c-debris",
        "lat": -16.677507366718686,
        "lon": -103.1753588641984,
        "alt_km": 763.2469169063625,
        "timestamp": "2025-12-10T04:57:29.896123+00:00",
        "meta_object_name": "FENGYUN 1C DEB",
        "meta_object_id": "1999-025APG",
        "meta_epoch": "2025-12-09T18:40:43.760928",
        "meta_mean_motion": 14.29483816,
        "meta_eccentricity": 0.0051388,
        "meta_inclination": 98.8089,
        "meta_ra_of_asc_node": 79.0544,
        "meta_arg_of_pericenter": 179.6781,
        "meta_mean_anomaly": 333.9944,
        "meta_ephemeris_type": 0,
        "meta_classification_type": "U",
        "meta_norad_cat_id": 30649,
        "meta_element_set_no": 999,
        "meta_rev_at_epoch": 97021,
        "meta_bstar": 0.0031709,
        "meta_mean_motion_dot": 8.178e-05,
        "meta_mean_motion_ddot": 0,
        "tle_line1": "1 30649U 99025APG 25343.77828427  .00008178  00000+0  31709-2 0  9994",
        "tle_line2": "2 30649  98.8089  79.0544 0051388 179.6781 333.9944 14.29483816970219"
      },
      "geometry": {
        "type": "Point",
        "coordinates": [
          -103.1753588641984,
          -16.677507366718686
        ]
      }
    },
    {
      "type": "Feature",
      "properties": {
        "norad_id": 30650,
        "name": "FENGYUN 1C DEB",
        "group": "fengyun-1c-debris",
        "lat": -22.88123051583336,
        "lon": 28.644564358110376,
        "alt_km": 891.3113051648143,
        "timestamp": "2025-12-10T04:57:29.896134+00:00",
        "meta_object_name": "FENGYUN 1C DEB",
        "meta_object_id": "1999-025APH",
        "meta_epoch": "2025-12-09T14:30:09.619200",
        "meta_mean_motion": 14.13907626,
        "meta_eccentricity": 0.0072112,
        "meta_inclination": 99.204,
        "meta_ra_of_asc_node": 24.101,
        "meta_arg_of_pericenter": 198.2631,
        "meta_mean_anomaly": 313.9689,
        "meta_ephemeris_type": 0,
        "meta_classification_type": "U",
        "meta_norad_cat_id": 30650,
        "meta_element_set_no": 999,
        "meta_rev_at_epoch": 96254,
        "meta_bstar": 0.0021565,
        "meta_mean_motion_dot": 4.148e-05,
        "meta_mean_motion_ddot": 0,
        "tle_line1": "1 30650U 99025APH 25343.60427800  .00004148  00000+0  21565-2 0  9990",
        "tle_line2": "2 30650  99.2040  24.1010 0072112 198.2631 313.9689 14.13907626962545"
      },
      "geometry": {
        "type": "Point",
        "coordinates": [
          28.644564358110376,
          -22.88123051583336
        ]
      }
    },
    {
      "type": "Feature",
      "properties": {
        "norad_id": 30652,
        "name": "FENGYUN 1C DEB",
        "group": "fengyun-1c-debris",
        "lat": 80.04613881636273,
        "lon": -100.80517495919169,
        "alt_km": 864.7889704058534,
        "timestamp": "2025-12-10T04:57:29.896143+00:00",
        "meta_object_name": "FENGYUN 1C DEB",
        "meta_object_id": "1999-025APJ",
        "meta_epoch": "2025-12-09T01:21:26.640576",
        "meta_mean_motion": 14.07802614,
        "meta_eccentricity": 0.0007324,
        "meta_inclination": 98.7855,
        "meta_ra_of_asc_node": 16.2896,
        "meta_arg_of_pericenter": 277.0839,
        "meta_mean_anomaly": 112.3409,
        "meta_ephemeris_type": 0,
        "meta_classification_type": "U",
        "meta_norad_cat_id": 30652,
        "meta_element_set_no": 999,
        "meta_rev_at_epoch": 96642,
        "meta_bstar": 9.3107125e-05,
        "meta_mean_motion_dot": 1.15e-06,
        "meta_mean_motion_ddot": 0,
        "tle_line1": "1 30652U 99025APJ 25343.05655834  .00000115  00000+0  93107-4 0  9994",
        "tle_line2": "2 30652  98.7855  16.2896 0007324 277.0839 112.3409 14.07802614966424"
      },
      "geometry": {
        "type": "Point",
        "coordinates": [
          -100.80517495919169,
          80.04613881636273
        ]
      }
    }
  ]
}